KUIPER-00079            
1 64826U 25151L   25345.22837726  .00008373  00000+0  11240-2 0  9996
2 64826  51.9000 331.7458 0011493 309.4235  50.5709 14.79972952 23408
KUIPER-00080            
1 64827U 25151M   25344.38394982  .00008913  00000+0  11925-2 0  9995
2 64827  51.9008 335.4796 0005887 321.1067  38.9471 14.80071853 22088
KUIPER-00082            
1 64828U 25151N   25345.24183988  .00008793  00000+0  11821-2 0  9995
2 64828  51.9022 319.2047 0005068 356.4006   3.6919 14.79888261 22385
KUIPER-00083            
1 64829U 25151P   25345.16625559  .00006074  00000+0  82467-3 0  9997
2 64829  51.9020 327.0349 0011260 309.0690  50.9270 14.79922920 23455
KUIPER-00084            
1 64830U 25151Q   25345.22281547  .00006326  00000+0  85636-3 0  9992
2 64830  51.9015 336.7686 0011724 283.4679  76.4977 14.79988413 22139
KUIPER-00085            
1 64831U 25151R   25345.20805612  .00007914  00000+0  10669-2 0  9993
2 64831  51.9045 319.3675 0007510 324.2513  35.7945 14.79882157 22374
KUIPER-00086            
1 64832U 25151S   25345.19720973 -.00019644  00000+0 -25556-2 0  9994
2 64832  51.9018 329.4024 0011170 308.1912  51.8044 14.79875931 22232
KUIPER-00087            
1 64833U 25151T   25345.21588022  .00006630  00000+0  89575-3 0  9996
2 64833  51.9004 311.8116 0001030  21.1192 338.9812 14.80029080 22477
